HST                     
1 20580U 90037B   24032.58459623  .00005169  00000+0  25404-3 0  9995
2 20580  28.4674 178.9249 0002588   1.4140 358.6458 15.15756774656274
POLAR                   
1 23802U 96013A   24032.57949943  .00000319  00000+0  00000+0 0  9996
2 23802  79.0280 235.9433 5816648 238.4364  52.0449  1.29846955133606
SWAS                    
1 25560U 98071A   24032.07700001  .00003971  00000+0  33574-3 0  9993
2 25560  69.8984 286.5214 0005923 170.6735 189.4535 14.98872186366835
CXO                     
1 25867U 99040B   24033.00810059  .00000752  00000+0  00000+0 0  9997
2 25867  38.5764 167.8442 8991203 286.0130   0.5394  0.37812923 14053
XMM-NEWTON              
1 25989U 99066A   24031.31572115  .00000154  00000+0  00000+0 0  9996
2 25989  68.3078 294.9405 5285787  79.1810  88.2187  0.50137411 18665
TERRA                   
1 25994U 99068A   24032.62468841  .00000620  00000+0  13992-3 0  9995
2 25994  98.0673 100.0386 0003061  79.8713  79.0263 14.59566442283126
CLUSTER II-FM7 (SAMBA)  
1 26410U 00041A   24033.64602292  .00000783  00000+0  00000+0 0  9997
2 26410 138.0024 355.6430 7123914 210.3611 359.3337  0.44221782 16448
CLUSTER II-FM6 (SALSA)  
1 26411U 00041B   24015.54795873  .00002824  00000+0  00000+0 0  9993
2 26411 145.1481  11.4032 8707777 225.6856 359.0940  0.44218190 16420
CLUSTER II-FM5 (RUMBA)  
1 26463U 00045A   24033.63966695  .00002648  00000+0  00000+0 0  9990
2 26463 147.9328  10.2832 8248941 225.3437 359.2770  0.44222744 16385
CLUSTER II-FM8 (TANGO)  
1 26464U 00045B   24033.64575810  .00000782  00000+0  00000+0 0  9994
2 26464 137.9889 355.6194 7124350 210.3533 359.3175  0.44218403 16456
ODIN                    
1 26702U 01007A   24031.99425577  .00009205  00000+0  44547-3 0  9995
2 26702  97.4932  48.0836 0009644  49.2908 310.9162 15.18764419256053
TIMED                   
1 26998U 01055B   24032.50842383  .00001914  00000+0  19888-3 0  9990
2 26998  74.0718 174.5375 0002265 267.4466  92.6457 14.90695599201457
INTEGRAL                
1 27540U 02048A   24032.42281425 -.00000202  00000+0  00000+0 0  9994
2 27540  87.6487  27.3292 8689756 285.7625 246.5334  0.37582364 23379
CORIOLIS                
1 27640U 03001A   24032.47582524  .00000192  00000+0  11174-3 0  9999
2 27640  98.7156  41.8756 0014049 184.4504 175.6549 14.19389676 91249
SORCE                   
1 27651U 03004A   24032.57142986  .00003444  00000+0  33094-3 0  9997
2 27651  39.9932 131.6489 0019998 345.8624  14.1605 14.93817581141806
MOST                    
1 27843U 03031D   24032.44892145  .00000126  00000+0  78556-4 0  9992
2 27843  98.7084  41.3817 0009112 230.4573 129.5800 14.20894941 67609
SCISAT 1                
1 27858U 03036A   24032.56835421  .00000997  00000+0  14042-3 0  9995
2 27858  73.9320  90.1001 0008360 340.5757  19.5099 14.78782128103213
SWIFT                   
1 28485U 04047A   24032.46582336  .00010791  00000+0  52967-3 0  9999
2 28485  20.5570  77.1141 0008390 315.1981  44.7777 15.15311805 53382
CLOUDSAT                
1 29107U 06016A   24032.57019559  .00001325  00000+0  21459-3 0  9998
2 29107  98.4065  11.7950 0006444  67.2023 292.9864 14.73023320945951
CALIPSO                 
1 29108U 06016B   24032.59469632  .00001810  00000+0  34647-3 0  9994
2 29108  98.4048  11.2556 0001529  87.4987 272.6390 14.65101765945941
HINODE (SOLAR-B)        
1 29479U 06041A   24032.51752108  .00000915  00000+0  17527-3 0  9991
2 29479  98.0975  49.7476 0018771 149.4161 210.8141 14.66015141927754
SJ-6C                   
1 29505U 06046A   24032.54272703  .00005260  00000+0  41235-3 0  9998
2 29505  97.7412  60.0493 0004634 239.9139 120.1626 15.01399690941519
SJ-6D                   
1 29506U 06046B   24032.54961133  .00003150  00000+0  28231-3 0  9998
2 29506  97.7537  58.7294 0003330  65.2547 294.9021 14.96505554940885
AGILE                   
1 31135U 07013A   24030.04166667  .00484974  57324-4  88511-3 0  9996
2 31135   2.4638 139.6594 0000801 138.8573  29.1277 15.99631512936445
FGRST (GLAST)           
1 33053U 08029A   24032.47502488  .00004239  00000+0  20137-3 0  9995
2 33053  25.5837  67.3139 0010257 237.1456 122.8093 15.15559147863801
WISE                    
1 36119U 09071A   24032.55933306  .00025739  00000+0  42313-3 0  9993
2 36119  97.1704  68.5080 0000256  59.8355 300.2923 15.52364117786976
SDO                     
1 36395U 10005A   24032.18550566 -.00000069  00000+0  00000+0 0  9993
2 36395  32.8393  99.7407 0003219 229.2519 126.2943  1.00277577 51365
CRYOSAT 2               
1 36508U 10013A   24032.55028438  .00000207  00000+0  50561-4 0  9992
2 36508  92.0272  67.9130 0004765  55.0678 305.0976 14.51899422732338
X-SAT                   
1 37389U 11015C   24032.52595866  .00000121  00000+0  69661-4 0  9990
2 37389  98.2958  44.0284 0014385  13.4162 346.7398 14.24620976664257
GCOM-W1 (SHIZUKU)       
1 38337U 12025A   24032.43446645  .00000909  00000+0  21167-3 0  9998
2 38337  98.2263 334.4836 0001306  64.7897  48.0416 14.57157497622810
NUSTAR                  
1 38358U 12031A   24006.08911775  .00004823  00000+0  37095-3 0  9997
2 38358   6.0246 180.9306 0011283 278.2371  81.6479 14.94064793629738
NEOSSAT                 
1 39089U 13009D   24032.46008063  .00000272  00000+0  11032-3 0  9990
2 39089  98.4029 223.4098 0010396 314.0248  46.0081 14.35045266572393
BRITE-AUSTRIA           
1 39091U 13009F   24032.51994654  .00000303  00000+0  11983-3 0  9999
2 39091  98.3841 223.8218 0009550 312.1604  47.8770 14.35670102572656
IRIS                    
1 39197U 13033A   24032.48109057  .00002105  00000+0  27513-3 0  9992
2 39197  97.9643 223.8688 0025223 264.9474  94.8859 14.81329879571846
HISAKI (SPRINT-A)       
1 39253U 13049A   24032.23441486  .00000127  00000+0  81580-4 0  9997
2 39253  29.7211 307.0925 0137173 189.2105 170.5938 13.55369478513711
CASSIOPE                
1 39265U 13055A   24032.58428364  .00031351  00000+0  70177-3 0  9997
2 39265  80.9602 347.0742 0526209 329.6183  27.5449 14.62680524538370
STSAT-3                 
1 39422U 13066G   24032.55150602  .00003220  00000+0  30814-3 0  9996
2 39422  97.5076  17.8872 0023010  97.0393 263.3445 14.93675965554417
SWARM B                 
1 39451U 13067A   24032.59449407  .00003482  00000+0  16529-3 0  9994
2 39451  87.7456 243.2784 0002548  90.2522 269.9014 15.18936109551252
SWARM A                 
1 39452U 13067B   24032.55971573  .00006958  00000+0  23793-3 0  9997
2 39452  87.3466  12.1317 0002568  94.9543 265.1999 15.30086666572858
SWARM C                 
1 39453U 13067C   24032.55960763  .00006837  00000+0  23375-3 0  9999
2 39453  87.3466  10.7284 0002575  95.4508 264.7035 15.30087909572814
BRITE-CA1 (TORONTO)     
1 40020U 14033L   24032.39376096  .00001884  00000+0  31392-3 0  9992
2 40020  97.8533 174.5803 0084289 168.0503 192.2729 14.68815638514782
OCO 2                   
1 40059U 14035A   24032.54553168  .00000819  00000+0  19162-3 0  9998
2 40059  98.2265 335.3331 0001368 107.3024 252.8324 14.57161749509845
BRITE-PL2 (HEWELIUSZ)   
1 40119U 14049B   24032.27180044  .00002338  00000+0  26090-3 0  9995
2 40119  97.8800 132.7245 0017490  94.8095 265.5119 14.87878644512216
RESURS P2               
1 40360U 14087A   24032.59334871  .00019557  00000+0  33056-3 0  9990
2 40360  97.1611 119.0835 0008495  85.3714 274.8509 15.51597531508304
MMS 1                   
1 40482U 15011A   24031.50002315 -.00001910  00000+0  00000+0 0  9992
2 40482  39.0956  24.7433 9164134 134.8069  99.1317  0.28402523  1337
MMS 2                   
1 40483U 15011B   24031.50002315 -.00001910  00000+0  00000+0 0  9993
2 40483  39.0908  24.7650 9164183 134.7812  99.1621  0.28405507  1338
MMS 3                   
1 40484U 15011C   24031.50002315 -.00001909  00000+0  00000+0 0  9992
2 40484  39.0860  24.7621 9163587 134.7871  99.1515  0.28405536  1330
MMS 4                   
1 40485U 15011D   24031.50002315 -.00001910  00000+0  00000+0 0  9995
2 40485  39.0937  24.7425 9163641 134.8009  99.1541  0.28402531  1334
ASTROSAT                
1 40930U 15052A   24006.16340880  .00001943  00000+0  17423-3 0  9997
2 40930   5.9997  85.2473 0008613 282.4744  77.4420 14.78268977447249
DAMPE                   
1 41173U 15078A   24032.55036093  .00001893  00000+0  75299-4 0  9995
2 41173  97.4228  26.7734 0011312 264.6930  95.3018 15.26484245452139
PISAT                   
1 41784U 16059B   24032.54424323  .00001267  00000+0  24114-3 0  9993
2 41784  97.8483  60.7546 0032306  87.7750 272.7153 14.65383058392645
HXMT (HUIYAN)           
1 42758U 17034A   24032.22639251  .00007482  00000+0  40011-3 0  9991
2 42758  43.0155 313.3427 0001186 353.5888   6.4944 15.15456118366060
FLYING LAPTOP           
1 42831U 17042G   24032.54635475  .00003106  00000+0  29405-3 0  9994
2 42831  97.3818 221.5102 0013154 169.6330 190.5165 14.94240658356724
ZHANGZHENG-1 (CSES)     
1 43194U 18015C   24032.55567830  .00013410  00000+0  61608-3 0  9998
2 43194  97.5886 175.1077 0013119 272.0727  87.9006 15.20432412332929
SALSAT                  
1 46495U 20068K   24032.40739001  .00005869  00000+0  35720-3 0  9996
2 46495  97.8004 348.6766 0016375  63.7275 296.5634 15.10709159183645
IXPE                    
1 49954U 21121A   24006.41326891  .00004809  00000+0  34734-3 0  9998
2 49954   0.2277 159.2180 0010075  26.1549 174.6158 14.96025382113475
